CTC2_L_00279016-03
1 72545U 23851GR  26070.40846065  .00000000  00000+0  00000-0 0  9999
2 72545  65.0000 180.0000 0000000   0.0000   0.0000 13.89609395    19
CTC2_L_00279016-04
1 72546U 24402NH  26070.40846065  .00000000  00000+0  00000-0 0  9993
2 72546  65.0000 180.0000 0000000   0.0000  90.0000 13.89609395    19
CTC2_L_00279017-01
1 72547U 24278Y   26070.40846065  .00000000  00000+0  00000-0 0  9995
2 72547  65.0000 192.0000 0000000   0.0000 192.0000 13.89609395    16
CTC2_L_00279017-02
1 72548U 23427RJ  26070.40846065  .00000000  00000+0  00000-0 0  9991
2 72548  65.0000 192.0000 0000000   0.0000 282.0000 13.89609395    17
CTC2_L_00279017-03
1 72549U 24442FC  26070.40846065  .00000000  00000+0  00000-0 0  9990
2 72549  65.0000 192.0000 0000000   0.0000  12.0000 13.89609395    19
CTC2_L_00279017-04
1 72550U 24402RF  26070.40846065  .00000000  00000+0  00000-0 0  9998
2 72550  65.0000 192.0000 0000000   0.0000 102.0000 13.89609395    11
CTC2_L_00279018-01
1 72551U 22623AZ  26070.40846065  .00000000  00000+0  00000-0 0  9992
2 72551  65.0000 204.0000 0000000   0.0000 204.0000 13.89609395    19
CTC2_L_00279018-02
1 72552U 26289YC  26070.40846065  .00000000  00000+0  00000-0 0  9995
2 72552  65.0000 204.0000 0000000   0.0000 294.0000 13.89609395    19
CTC2_L_00279018-03
1 72553U 22091FS  26070.40846065  .00000000  00000+0  00000-0 0  9993
2 72553  65.0000 204.0000 0000000   0.0000  24.0000 13.89609395    11
CTC2_L_00279018-04
1 72554U 22058AW  26070.40846065  .00000000  00000+0  00000-0 0  9997
2 72554  65.0000 204.0000 0000000   0.0000 114.0000 13.89609395    12
CTC2_L_00279019-01
1 72555U 23420R   26070.40846065  .00000000  00000+0  00000-0 0  9992
2 72555  65.0000 216.0000 0000000   0.0000 216.0000 13.89609395    19
CTC2_L_00279019-02
1 72556U 25290LD  26070.40846065  .00000000  00000+0  00000-0 0  9990
2 72556  65.0000 216.0000 0000000   0.0000 306.0000 13.89609395    10
CTC2_L_00279019-03
1 72557U 26967JV  26070.40846065  .00000000  00000+0  00000-0 0  9993
2 72557  65.0000 216.0000 0000000   0.0000  36.0000 13.89609395    11
CTC2_L_00279019-04
1 72558U 24672GM  26070.40846065  .00000000  00000+0  00000-0 0  9995
2 72558  65.0000 216.0000 0000000   0.0000 126.0000 13.89609395    12
CTC2_L_00279020-01
1 72559U 24292XZ  26070.40846065  .00000000  00000+0  00000-0 0  9994
2 72559  65.0000 228.0000 0000000   0.0000 228.0000 13.89609395    19
CTC2_L_00279020-02
1 72560U 23454SI  26070.40846065  .00000000  00000+0  00000-0 0  9995
2 72560  65.0000 228.0000 0000000   0.0000 318.0000 13.89609395    11
CTC2_L_00279020-03
1 72561U 26584RO  26070.40846065  .00000000  00000+0  00000-0 0  9993
2 72561  65.0000 228.0000 0000000   0.0000  48.0000 13.89609395    12
CTC2_L_00279020-04
1 72562U 24694LH  26070.40846065  .00000000  00000+0  00000-0 0  9994
2 72562  65.0000 228.0000 0000000   0.0000 138.0000 13.89609395    13
CTC2_L_00279021-01
1 72563U 24319VT  26070.40846065  .00000000  00000+0  00000-0 0  9999
2 72563  65.0000 240.0000 0000000   0.0000 240.0000 13.89609395    12
CTC2_L_00279021-02
1 72564U 24355DQ  26070.40846065  .00000000  00000+0  00000-0 0  9990
2 72564  65.0000 240.0000 0000000   0.0000 330.0000 13.89609395    13
CTC2_L_00279021-03
1 72565U 22404IU  26070.40846065  .00000000  00000+0  00000-0 0  9994
2 72565  65.0000 240.0000 0000000   0.0000  60.0000 13.89609395    14
CTC2_L_00279021-04
1 72566U 26097GJ  26070.40846065  .00000000  00000+0  00000-0 0  9997
2 72566  65.0000 240.0000 0000000   0.0000 150.0000 13.89609395    15
CTC2_L_00279022-01
1 72567U 26461FP  26070.40846065  .00000000  00000+0  00000-0 0  9993
2 72567  65.0000 252.0000 0000000   0.0000 252.0000 13.89609395    12
CTC2_L_00279022-02
1 72568U 22968PX  26070.40846065  .00000000  00000+0  00000-0 0  9992
2 72568  65.0000 252.0000 0000000   0.0000 342.0000 13.89609395    13
CTC2_L_00279022-03
1 72569U 23026AN  26070.40846065  .00000000  00000+0  00000-0 0  9999
2 72569  65.0000 252.0000 0000000   0.0000  72.0000 13.89609395    14
CTC2_L_00279022-04
1 72570U 23588XM  26070.40846065  .00000000  00000+0  00000-0 0  9994
2 72570  65.0000 252.0000 0000000   0.0000 162.0000 13.89609395    16
CTC2_L_00279023-01
1 72571U 23130ZM  26070.40846065  .00000000  00000+0  00000-0 0  9998
2 72571  65.0000 264.0000 0000000   0.0000 264.0000 13.89609395    13
CTC2_L_00279023-02
1 72572U 23149X   26070.40846065  .00000000  00000+0  00000-0 0  9999
2 72572  65.0000 264.0000 0000000   0.0000 354.0000 13.89609395    14
CTC2_L_00279023-03
1 72573U 23038AI  26070.40846065  .00000000  00000+0  00000-0 0  9997
2 72573  65.0000 264.0000 0000000   0.0000  84.0000 13.89609395    15
CTC2_L_00279023-04
1 72574U 22709BG  26070.40846065  .00000000  00000+0  00000-0 0  9992
2 72574  65.0000 264.0000 0000000   0.0000 174.0000 13.89609395    16
CTC2_L_00279024-01
1 72575U 25837EN  26070.40846065  .00000000  00000+0  00000-0 0  9998
2 72575  65.0000 276.0000 0000000   0.0000 276.0000 13.89609395    13
CTC2_L_00279024-02
1 72576U 25352JB  26070.40846065  .00000000  00000+0  00000-0 0  9991
2 72576  65.0000 276.0000 0000000   0.0000   6.0000 13.89609395    15
CTC2_L_00279024-03
1 72577U 24350SC  26070.40846065  .00000000  00000+0  00000-0 0  9999
2 72577  65.0000 276.0000 0000000   0.0000  96.0000 13.89609395    15
CTC2_L_00279024-04
1 72578U 23976ZB  26070.40846065  .00000000  00000+0  00000-0 0  9993
2 72578  65.0000 276.0000 0000000   0.0000 186.0000 13.89609395    16
CTC2_L_00279025-01
1 72579U 23811KF  26070.40846065  .00000000  00000+0  00000-0 0  9992
2 72579  65.0000 288.0000 0000000   0.0000 288.0000 13.89609395    13
CTC2_L_00279025-02
1 72580U 24100O   26070.40846065  .00000000  00000+0  00000-0 0  9996
2 72580  65.0000 288.0000 0000000   0.0000  18.0000 13.89609395    16
CTC2_L_00279025-03
1 72581U 22683RJ  26070.40846065  .00000000  00000+0  00000-0 0  9991
2 72581  65.0000 288.0000 0000000   0.0000 108.0000 13.89609395    17
CTC2_L_00279025-04
1 72582U 26257FR  26070.40846065  .00000000  00000+0  00000-0 0  9993
2 72582  65.0000 288.0000 0000000   0.0000 198.0000 13.89609395    17
CTC2_L_00279026-01
1 72583U 26547KU  26070.40846065  .00000000  00000+0  00000-0 0  9996
2 72583  65.0000 300.0000 0000000   0.0000 300.0000 13.89609395    18
CTC2_L_00279026-02
1 72584U 24491MN  26070.40846065  .00000000  00000+0  00000-0 0  9993
2 72584  65.0000 300.0000 0000000   0.0000  30.0000 13.89609395    19
CTC2_L_00279026-03
1 72585U 25405TM  26070.40846065  .00000000  00000+0  00000-0 0  9990
2 72585  65.0000 300.0000 0000000   0.0000 120.0000 13.89609395    10
CTC2_L_00279026-04
1 72586U 24946BN  26070.40846065  .00000000  00000+0  00000-0 0  9990
2 72586  65.0000 300.0000 0000000   0.0000 210.0000 13.89609395    11
CTC2_L_00279027-01
1 72587U 25107WL  26070.40846065  .00000000  00000+0  00000-0 0  9991
2 72587  65.0000 312.0000 0000000   0.0000 312.0000 13.89609395    18
CTC2_L_00279027-02
1 72588U 23368CN  26070.40846065  .00000000  00000+0  00000-0 0  9999
2 72588  65.0000 312.0000 0000000   0.0000  42.0000 13.89609395    19
CTC2_L_00279027-03
1 72589U 25527BA  26070.40846065  .00000000  00000+0  00000-0 0  9999
2 72589  65.0000 312.0000 0000000   0.0000 132.0000 13.89609395    10
CTC2_L_00279027-04
1 72590U 24939WD  26070.40846065  .00000000  00000+0  00000-0 0  9997
2 72590  65.0000 312.0000 0000000   0.0000 222.0000 13.89609395    12
CTC2_L_00279028-01
1 72591U 24522NH  26070.40846065  .00000000  00000+0  00000-0 0  9996
2 72591  65.0000 324.0000 0000000   0.0000 324.0000 13.89609395    19
CTC2_L_00279028-02
1 72592U 25424MZ  26070.40846065  .00000000  00000+0  00000-0 0  9999
2 72592  65.0000 324.0000 0000000   0.0000  54.0000 13.89609395    10
CTC2_L_00279028-03
1 72593U 26604XV  26070.40846065  .00000000  00000+0  00000-0 0  9991
2 72593  65.0000 324.0000 0000000   0.0000 144.0000 13.89609395    11
CTC2_L_00279028-04
1 72594U 23081NA  26070.40846065  .00000000  00000+0  00000-0 0  9998
2 72594  65.0000 324.0000 0000000   0.0000 234.0000 13.89609395    12
CTC2_L_00279029-01
1 72595U 22681SR  26070.40846065  .00000000  00000+0  00000-0 0  9994
2 72595  65.0000 336.0000 0000000   0.0000 336.0000 13.89609395    19
CTC2_L_00279029-02
1 72596U 24933VV  26070.40846065  .00000000  00000+0  00000-0 0  9997
2 72596  65.0000 336.0000 0000000   0.0000  66.0000 13.89609395    10
CTC2_L_00279029-03
1 72597U 26937DN  26070.40846065  .00000000  00000+0  00000-0 0  9994
2 72597  65.0000 336.0000 0000000   0.0000 156.0000 13.89609395    11
CTC2_L_00279029-04
1 72598U 26545SA  26070.40846065  .00000000  00000+0  00000-0 0  9990
2 72598  65.0000 336.0000 0000000   0.0000 246.0000 13.89609395    12
CTC2_L_00279030-01
1 72599U 26176TT  26070.40846065  .00000000  00000+0  00000-0 0  9991
2 72599  65.0000 348.0000 0000000   0.0000 348.0000 13.89609395    19
CTC2_L_00279030-02
1 72600U 26358WA  26070.40846065  .00000000  00000+0  00000-0 0  9996
2 72600  65.0000 348.0000 0000000   0.0000  78.0000 13.89609395    12
CTC2_L_00279030-03
1 72601U 23059CV  26070.40846065  .00000000  00000+0  00000-0 0  9992
2 72601  65.0000 348.0000 0000000   0.0000 168.0000 13.89609395    13
CTC2_L_00279030-04
1 72602U 25015CX  26070.40846065  .00000000  00000+0  00000-0 0  9997
2 72602  65.0000 348.0000 0000000   0.0000 258.0000 13.89609395    14
